ORBCOMM FM24 [-]        
1 25478U 98053D   23363.19339743  .00001750  00000+0  65729-3 0  9991
2 25478  45.0082 284.0757 0001833  15.8681 344.2224 14.35064776320373
ORBCOMM FM25 [-]        
1 25479U 98053E   23363.15807282  .00001354  00000+0  51988-3 0  9998
2 25479  45.0081 282.4783 0003404  60.4950 299.6236 14.35048372320667
ORBCOMM FM26 [-]        
1 25480U 98053F   23363.11711290  .00001316  00000+0  51130-3 0  9996
2 25480  45.0080 276.2723 0005036  92.7709 267.3715 14.34573867320605
ORBCOMM FM27 [+]        
1 25481U 98053G   23362.86568579  .00001409  00000+0  53903-3 0  9991
2 25481  45.0064 284.1170 0001432 314.2709  45.8020 14.35023585320594
ORBCOMM FM28 [-]        
1 25482U 98053H   23363.72993250  .00001151  00000+0  44514-3 0  9998
2 25482  45.0041 218.9720 0004006 124.7050 235.4175 14.35492667321511
ORBCOMM FM30 [-]        
1 25980U 99065A   23363.37054282  .00001666  00000+0  63232-3 0  9998
2 25980  45.0318 100.4761 0007596 211.3171 148.7225 14.34711426257432
ORBCOMM FM31 [-]        
1 25981U 99065B   23363.33697977  .00001535  00000+0  58630-3 0  9990
2 25981  45.0235  94.4298 0004967 228.6736 131.3684 14.34725293256988
ORBCOMM FM32 [+]        
1 25982U 99065C   23363.43177504  .00001514  00000+0  59087-3 0  9995
2 25982  45.0153 106.8171 0007232 228.1756 131.8474 14.33673696257645
